IRIDIUM 119             
1 42959U 17061E   24080.88151198  .00000220  00000+0  71635-4 0  9998
2 42959  86.4031   7.2127 0002152  92.1591 267.9851 14.34218371337521
IRIDIUM 107             
1 42960U 17061F   24081.17961447  .00000064  00000+0  15758-4 0  9999
2 42960  86.4033   7.1044 0002467  90.0834 270.0644 14.34218333337587
IRIDIUM 132             
1 42961U 17061G   24081.18595560  .00000327  00000+0  10960-3 0  9991
2 42961  86.4034   7.0873 0002361  87.5283 272.6183 14.34218350337574
IRIDIUM 136             
1 42962U 17061H   24081.21766698  .00000418  00000+0  14223-3 0  9995
2 42962  86.4034   7.0770 0002003  93.7405 266.4019 14.34220165337597
IRIDIUM 139             
1 42963U 17061J   24081.15424372  .00000453  00000+0  15470-3 0  9993
2 42963  86.4033   7.1518 0002368  87.9955 272.1512 14.34219566337592
IRIDIUM 135             
1 43070U 17083A   24081.11568471  .00000422  00000+0  14352-3 0  9996
2 43070  86.3942 303.9202 0002232  77.8489 282.2956 14.34219106326892
